{
"type": "FeatureCollection",
"name": "buffalo",
"crs": { "type": "name", "properties": { "name": "urn:ogc:def:crs:OGC:1.3:CRS84" } },
"features": [
{ "type": "Feature", "properties": { "DISTRICT": "District A", "objectid": "1", "TOTAL": 44946.579115872715, "WHITE": 32801.443676319614, "BLACK": 3576.2012871840352, "AMERICAN_INDIAN": 80.521423948427469, "ASIAN": 901.11968262207563, "PACIFIC_ISLANDER": 14.000000000000004, "OTHER": 1.1769624288443912, "TWO_OR_MORE": 2136.3718007197167, "HISPANIC": 5435.7442826500037, "WHITE_PCT": 0.73, "BLACK_PCT": 0.08, "AMERICAN_INDIAN_PCT": 0.002, "ASIAN_PCT": 0.02, "PACIFIC_ISLANDER_PCT": 0.0, "OTHER_PCT": 0.0, "TWO_OR_MORE_PCT": 0.048, "HISPANIC_PCT": 0.121 }, "geometry": { "type": "Polygon", "coordinates": [ [ [ -78.838387137024, 42.832075532898997 ], [ -78.853850691820995, 42.832230091893003 ], [ -78.853737429898999, 42.832234856974999 ], [ -78.860241732413002, 42.832294613743997 ], [ -78.860459439674003, 42.832938132033 ], [ -78.860190421983006, 42.832929527531 ], [ -78.860155470603004, 42.832824829663998 ], [ -78.855806324216005, 42.833083069853998 ], [ -78.846490562324007, 42.835714830049 ], [ -78.846697006767997, 42.836150979769997 ], [ -78.856002563226994, 42.833623324545997 ], [ -78.856989710790003, 42.833542425341001 ], [ -78.857821381746007, 42.833711928631999 ], [ -78.858925849840006, 42.833709446710998 ], [ -78.859885913544005, 42.833825635624997 ], [ -78.860510244536002, 42.833774384667002 ], [ -78.860599277961001, 42.834613460440004 ], [ -78.860424602917007, 42.835050335750999 ], [ -78.860914587935, 42.836444937288 ], [ -78.861114200496999, 42.837517921005997 ], [ -78.860727476509993, 42.837748572056 ], [ -78.860208139668003, 42.837923208840003 ], [ -78.859529918974005, 42.837898266628997 ], [ -78.858749939570998, 42.838047629192999 ], [ -78.857859282657003, 42.838358284995998 ], [ -78.858447641832996, 42.839872795158001 ], [ -78.862194462023993, 42.838854573688998 ], [ -78.862368418014, 42.839087210412998 ], [ -78.863020742719996, 42.838947222933001 ], [ -78.863106338991997, 42.839118507609001 ], [ -78.860324953695994, 42.839972621055999 ], [ -78.859952490740994, 42.840269861796997 ], [ -78.859665562822997, 42.840727070976001 ], [ -78.859668328493001, 42.841243089399001 ], [ -78.860922447904002, 42.844447418842996 ], [ -78.863860275853, 42.843617088447999 ], [ -78.868228333524996, 42.849960310467999 ], [ -78.867165715726998, 42.850715292636998 ], [ -78.867039153394003, 42.850663899009 ], [ -78.866998777206007, 42.850499280724001 ], [ -78.867885595735004, 42.849934067688999 ], [ -78.865525035556004, 42.846452673434001 ], [ -78.865421526896995, 42.846446328013997 ], [ -78.862380343476005, 42.847225843162001 ], [ -78.862233018249, 42.847426763135999 ], [ -78.863712519326, 42.849983417182997 ], [ -78.863792155536999, 42.850195661579001 ], [ -78.864115985813996, 42.850370305264001 ], [ -78.864793099389004, 42.850736668613997 ], [ -78.865019994986, 42.851222808086 ], [ -78.865203288944002, 42.851346175251997 ], [ -78.865418351833995, 42.851996977573997 ], [ -78.865348746845996, 42.852374777487 ], [ -78.865440605204, 42.852584631041999 ], [ -78.865790769078004, 42.852907890228998 ], [ -78.866274859580997, 42.852953169243001 ], [ -78.866404332040005, 42.853130516349999 ], [ -78.871777191571994, 42.851682049546 ], [ -78.872299658388002, 42.852561096378999 ], [ -78.869896117, 42.853168133620002 ], [ -78.869413604908004, 42.853364499664998 ], [ -78.869236266819996, 42.853625870875 ], [ -78.869527443029, 42.854090919336002 ], [ -78.872752507273006, 42.853116920733001 ], [ -78.874755155700001, 42.855987790187001 ], [ -78.875620587387004, 42.857508276749002 ], [ -78.875835547009004, 42.858207935023998 ], [ -78.876115317471005, 42.858710724867002 ], [ -78.876063643210998, 42.859011599317 ], [ -78.875197571558999, 42.859341018386999 ], [ -78.873994573538994, 42.859704900273002 ], [ -78.873465371999004, 42.859994522933 ], [ -78.873790188293, 42.860163306559002 ], [ -78.873847481232005, 42.860251822705997 ], [ -78.873726590066994, 42.860321583656003 ], [ -78.873825998431002, 42.860542386586999 ], [ -78.874027446138996, 42.860550278919 ], [ -78.874341251583004, 42.860855939532001 ], [ -78.874549453209994, 42.861209714045003 ], [ -78.874723395570001, 42.861118723131 ], [ -78.874905300115003, 42.860816582490003 ], [ -78.874937258990002, 42.860594439556998 ], [ -78.874866909481, 42.860407005219002 ], [ -78.875282627377999, 42.860176317083997 ], [ -78.875998397841997, 42.859905244585001 ], [ -78.876394968119996, 42.859866159637001 ], [ -78.876669097334997, 42.859962864859 ], [ -78.876822625209996, 42.860091091278001 ], [ -78.877663830979998, 42.861495176391003 ], [ -78.877689378899007, 42.861671233673 ], [ -78.877931850604995, 42.862168111037001 ], [ -78.878328640046007, 42.862760112434003 ], [ -78.879302895934998, 42.863891510121 ], [ -78.879617213035999, 42.864197155653997 ], [ -78.880442303414995, 42.865326871332996 ], [ -78.881361598102004, 42.866260146819997 ], [ -78.882007749126004, 42.866723552826002 ], [ -78.882568024010993, 42.867361415524002 ], [ -78.882657581185995, 42.867368041143003 ], [ -78.882728322446994, 42.867533518335001 ], [ -78.879271279384, 42.868692708567998 ], [ -78.880007931603004, 42.869552040206003 ], [ -78.883671173650995, 42.868406691678999 ], [ -78.884018535674997, 42.868882874038 ], [ -78.880440305205994, 42.870063339646997 ], [ -78.880877390498995, 42.870583027858999 ], [ -78.881144151455999, 42.870493672949003 ], [ -78.881499222556997, 42.870635257996 ], [ -78.884633546949999, 42.869740949564999 ], [ -78.884814311297006, 42.869995655966001 ], [ -78.884757114392997, 42.870219948143998 ], [ -78.884319316014995, 42.870423116643998 ], [ -78.884019678393003, 42.870463176266 ], [ -78.883500573801001, 42.870632429409 ], [ -78.883468463636007, 42.870741754962999 ], [ -78.883486982307005, 42.870906683401998 ], [ -78.883835660339003, 42.871651762448998 ], [ -78.885285262012005, 42.870950658864999 ], [ -78.885487103748005, 42.870936749028999 ], [ -78.887376918968002, 42.873193220792999 ], [ -78.887939622082996, 42.873732442121998 ], [ -78.889282300581002, 42.875363701440001 ], [ -78.889489136047004, 42.875508232233997 ], [ -78.889897411397996, 42.875648792694001 ], [ -78.890245227001003, 42.875821925442999 ], [ -78.890399887312, 42.875977055032003 ], [ -78.888474793102006, 42.876916321925002 ], [ -78.888131601553994, 42.876924438777003 ], [ -78.888090073594, 42.877204083195998 ], [ -78.889253031745994, 42.877274208567997 ], [ -78.889324347935002, 42.876983852481999 ], [ -78.890120261660002, 42.876672006855998 ], [ -78.890590419617993, 42.877534382878999 ], [ -78.890274775723, 42.877675946189001 ], [ -78.883209821481003, 42.877227742644997 ], [ -78.882997851583994, 42.877963247453998 ], [ -78.882331356131999, 42.877921773847 ], [ -78.880211115543005, 42.877105826400999 ], [ -78.878063001935999, 42.874560520597001 ], [ -78.877618759919997, 42.874860394610998 ], [ -78.877391164230005, 42.874708442709 ], [ -78.877154203890996, 42.874522954926 ], [ -78.877041132833, 42.874434445129999 ], [ -78.876857245568999, 42.874325934669002 ], [ -78.875944912693996, 42.873900429411997 ], [ -78.875385098763005, 42.873649467391999 ], [ -78.875185175764003, 42.873594478360999 ], [ -78.873430179962, 42.873300469188003 ], [ -78.872846087764998, 42.873197195743003 ], [ -78.871787810493998, 42.873015455012002 ], [ -78.871448816872004, 42.874004473188997 ], [ -78.871137816322999, 42.874971473266001 ], [ -78.870825824145996, 42.875961863549001 ], [ -78.870710823120007, 42.876297507301999 ], [ -78.870545294002, 42.876812392532997 ], [ -78.870126752130005, 42.878120463115998 ], [ -78.869888818093003, 42.878833421133002 ], [ -78.869671786943002, 42.879524422956997 ], [ -78.869473813734999, 42.880140496979998 ], [ -78.869417830535994, 42.880384502883999 ], [ -78.869359914553002, 42.880805369641998 ], [ -78.869305839259994, 42.880991454836 ], [ -78.869111796393994, 42.881578494167002 ], [ -78.868433143467996, 42.881462718729999 ], [ -78.867091777471003, 42.881237444842 ], [ -78.865019540795998, 42.880869880433004 ], [ -78.864448244016998, 42.880770911509003 ], [ -78.862363826169002, 42.880413443808997 ], [ -78.859947732804997, 42.879992459499 ], [ -78.857519796337002, 42.879571463323998 ], [ -78.85545182864, 42.879207425186998 ], [ -78.855315817568993, 42.879156459035997 ], [ -78.855229740517998, 42.879091473796002 ], [ -78.855125724150994, 42.878972440242002 ], [ -78.854762811520004, 42.879040501090003 ], [ -78.854350761418999, 42.879021440945003 ], [ -78.852038778565003, 42.878603441437001 ], [ -78.848966756956003, 42.878066476210002 ], [ -78.847320777302997, 42.877777488169002 ], [ -78.845691773401001, 42.877493486900001 ], [ -78.844083725836001, 42.877215511925002 ], [ -78.843116331165007, 42.877037246758 ], [ -78.842657768253005, 42.876975511010997 ], [ -78.842226789761995, 42.876921478187001 ], [ -78.842102798081001, 42.876882426808997 ], [ -78.841924774803999, 42.876791439190001 ], [ -78.841841719263002, 42.876729493288003 ], [ -78.841002665700998, 42.877333730890001 ], [ -78.839849725047003, 42.878175436557001 ], [ -78.839663766236001, 42.878315478662003 ], [ -78.839459169308, 42.878540460463 ], [ -78.839378110431994, 42.878664463949001 ], [ -78.839278735077002, 42.878869446538999 ], [ -78.839219180086005, 42.879127463144002 ], [ -78.839210794146993, 42.879295445619 ], [ -78.838554145879002, 42.879180497973003 ], [ -78.838381120842001, 42.879140478807997 ], [ -78.838195815272996, 42.879081473995001 ], [ -78.837955994736006, 42.878972255926001 ], [ -78.837937335158998, 42.878963894733999 ], [ -78.837628775761999, 42.878837510312998 ], [ -78.836857082768006, 42.878545438198998 ], [ -78.836641328813002, 42.878462529823999 ], [ -78.836299585313, 42.878331204576 ], [ -78.835850124331998, 42.878158483280998 ], [ -78.835630163339005, 42.878074305755 ], [ -78.835307494646003, 42.877950821460999 ], [ -78.834959151204998, 42.877817510027 ], [ -78.834807648389003, 42.877759125791997 ], [ -78.834618882013004, 42.877686379955001 ], [ -78.834113186070994, 42.877491496487004 ], [ -78.833866105881, 42.877396226583997 ], [ -78.833626675031994, 42.877303904762996 ], [ -78.833305782053003, 42.877180171466001 ], [ -78.833253799017996, 42.877159496078001 ], [ -78.833181357382998, 42.877132045216001 ], [ -78.832932180398004, 42.877035441933998 ], [ -78.832276837288006, 42.877243931087001 ], [ -78.832036445867004, 42.877320407230997 ], [ -78.831335606235001, 42.877543362784003 ], [ -78.831071875994994, 42.877628607021997 ], [ -78.830853608096007, 42.877700729734002 ], [ -78.830705681200996, 42.877749609325001 ], [ -78.830528427036995, 42.877808179044003 ], [ -78.830359403095002, 42.877864029157998 ], [ -78.830159467437994, 42.877930092992003 ], [ -78.829992859564996, 42.877985144259 ], [ -78.829828967623996, 42.878039296413 ], [ -78.829656408374007, 42.878096313486999 ], [ -78.829465129697994, 42.878159514574001 ], [ -78.829375987434005, 42.878189273130999 ], [ -78.829166342392995, 42.878259797797 ], [ -78.828904786072997, 42.878346569949002 ], [ -78.828896793900995, 42.878349554228997 ], [ -78.828797160424998, 42.878396448091003 ], [ -78.828730171342002, 42.878447492150997 ], [ -78.828713176909005, 42.878465455632004 ], [ -78.828661113560003, 42.878520485359999 ], [ -78.828647420148002, 42.878538401248001 ], [ -78.828535125201995, 42.878687449700998 ], [ -78.828463149521994, 42.878779490570999 ], [ -78.828392273893002, 42.878878605699001 ], [ -78.828273675418998, 42.879044455652 ], [ -78.826862917423, 42.881026763370997 ], [ -78.825647160089005, 42.882729885498001 ], [ -78.824332711012005, 42.884573462151003 ], [ -78.824216028265994, 42.884763118206997 ], [ -78.824179869475998, 42.884822142673002 ], [ -78.824166045045004, 42.884849866209997 ], [ -78.824156097124998, 42.884872444919999 ], [ -78.821972676423002, 42.884852707225001 ], [ -78.818272126069999, 42.884823497585998 ], [ -78.815409150118995, 42.884809508502997 ], [ -78.814165109287998, 42.884796458636998 ], [ -78.813828093723998, 42.884779520267998 ], [ -78.809706080826004, 42.884749489740003 ], [ -78.808658190874993, 42.884738486545999 ], [ -78.807590161312007, 42.884728504355998 ], [ -78.806238312380003, 42.884712359379002 ], [ -78.805060028173997, 42.884693250886002 ], [ -78.803761592572997, 42.884695758161001 ], [ -78.803459240208994, 42.884693623015004 ], [ -78.802852454228997, 42.884675477381997 ], [ -78.802345077455996, 42.884657453488998 ], [ -78.802090163935006, 42.884669443892001 ], [ -78.801805336336997, 42.884712589018001 ], [ -78.801378712225997, 42.884829570698997 ], [ -78.800986154906994, 42.884946466224001 ], [ -78.800924150016996, 42.884981482127003 ], [ -78.800859988997004, 42.885093765527003 ], [ -78.800397559595993, 42.884912263433002 ], [ -78.799557595178996, 42.884586838771 ], [ -78.799658672964995, 42.877695751529998 ], [ -78.799682744158005, 42.874732446587998 ], [ -78.799861541167004, 42.871694398979997 ], [ -78.799873638741005, 42.871243947578002 ], [ -78.799550002125997, 42.871238214428999 ], [ -78.799513784203995, 42.868612501971 ], [ -78.799618331286993, 42.867302828203002 ], [ -78.799991814302999, 42.867168185575999 ], [ -78.800048798627003, 42.864450385523 ], [ -78.800375905970995, 42.864466613639998 ], [ -78.800017680601997, 42.864447563695002 ], [ -78.800433758118999, 42.854496443411001 ], [ -78.800599595989993, 42.847550733329001 ], [ -78.800655427137002, 42.845468145593003 ], [ -78.799187785247, 42.846399474808997 ], [ -78.796806728001997, 42.845495442884001 ], [ -78.798577418132993, 42.843028113686003 ], [ -78.798064610303001, 42.842863756577003 ], [ -78.797631017255, 42.842753123177999 ], [ -78.797040234804996, 42.842350505859002 ], [ -78.796735008029998, 42.841753100231003 ], [ -78.796191094221996, 42.841212705437997 ], [ -78.795133151469997, 42.840894295249001 ], [ -78.796644744741997, 42.838362490717003 ], [ -78.800201774646993, 42.839310463452001 ], [ -78.800187430039998, 42.841064216109999 ], [ -78.800785182129005, 42.841265102148 ], [ -78.800859763204997, 42.839613449890997 ], [ -78.800874798251996, 42.838957470425001 ], [ -78.800980865813003, 42.835535328078997 ], [ -78.800996801186002, 42.834491343308997 ], [ -78.801021874838995, 42.833566356021002 ], [ -78.801043863893995, 42.832812363454003 ], [ -78.801045839598999, 42.832011315937997 ], [ -78.805608882206997, 42.832031322248 ], [ -78.807344918724993, 42.832039344114001 ], [ -78.808463769024002, 42.831909471765002 ], [ -78.808731740046994, 42.831904506443003 ], [ -78.809587904233993, 42.832039363180002 ], [ -78.812551922111993, 42.832045370906997 ], [ -78.813701917467995, 42.832046364172001 ], [ -78.817658297094994, 42.831995999066002 ], [ -78.819559584958995, 42.831994808413 ], [ -78.820760107870996, 42.831995124210003 ], [ -78.823901837478999, 42.832074301967999 ], [ -78.823944015052007, 42.831228744068 ], [ -78.823960416861993, 42.830495646696001 ], [ -78.824000784952005, 42.826846471701998 ], [ -78.830267729054, 42.826903061057003 ], [ -78.830275875013996, 42.826608245422001 ], [ -78.831685191405001, 42.826663505441999 ], [ -78.832878002385996, 42.826790836309002 ], [ -78.832974780510995, 42.826016466326003 ], [ -78.834676768144007, 42.826196466017997 ], [ -78.835420448646005, 42.829079584448003 ], [ -78.836117518101005, 42.830782527924001 ], [ -78.836722005346004, 42.832057621574997 ], [ -78.838387137024, 42.832075532898997 ] ] ] } },
{ "type": "Feature", "properties": { "DISTRICT": "District B", "objectid": "3", "TOTAL": 44317.014872040229, "WHITE": 18853.034192599524, "BLACK": 11771.953299956474, "AMERICAN_INDIAN": 144.47239969011315, "ASIAN": 2825.485262911503, "PACIFIC_ISLANDER": 6.0, "OTHER": 200.11102674250122, "TWO_OR_MORE": 1380.2013440413455, "HISPANIC": 9135.7573460987678, "WHITE_PCT": 0.425, "BLACK_PCT": 0.266, "AMERICAN_INDIAN_PCT": 0.003, "ASIAN_PCT": 0.064, "PACIFIC_ISLANDER_PCT": 0.0, "OTHER_PCT": 0.005, "TWO_OR_MORE_PCT": 0.031, "HISPANIC_PCT": 0.206 }, "geometry": { "type": "Polygon", "coordinates": [ [ [ -78.901972526359003, 42.896664791973997 ], [ -78.901131285979005, 42.897090715517997 ], [ -78.901901480503994, 42.897816043978999 ], [ -78.902051317574006, 42.898467296429999 ], [ -78.901803477339996, 42.898624728884002 ], [ -78.901972082312, 42.898933974203999 ], [ -78.902143142270006, 42.899085783720999 ], [ -78.902176699782999, 42.899442050512 ], [ -78.902075796210994, 42.899777770596003 ], [ -78.902024570734994, 42.900429924553997 ], [ -78.902112118017996, 42.901394838057001 ], [ -78.902176076529997, 42.901765424464998 ], [ -78.902164350397001, 42.902206190290997 ], [ -78.901859912385007, 42.901975523729 ], [ -78.901649339653005, 42.902124964339002 ], [ -78.901934469897995, 42.90277378319 ], [ -78.901965948412993, 42.903359854634999 ], [ -78.901684108287, 42.906359451825999 ], [ -78.901741038433002, 42.914685100855003 ], [ -78.901761963355995, 42.914852075348001 ], [ -78.901723381734996, 42.915191026386999 ], [ -78.901396143886004, 42.915195512593002 ], [ -78.900275140432996, 42.915212520079002 ], [ -78.899449182894003, 42.915203515961998 ], [ -78.898437191618001, 42.915150518532002 ], [ -78.897505146599002, 42.915106492108002 ], [ -78.895997195988997, 42.915137461392 ], [ -78.894609186831005, 42.915176479281001 ], [ -78.893237157634005, 42.915212504174001 ], [ -78.890409117603994, 42.915285473509002 ], [ -78.888319139193996, 42.915333448142 ], [ -78.886905133314002, 42.915362452163002 ], [ -78.886093194365003, 42.915385466685002 ], [ -78.885650210872996, 42.915402507303 ], [ -78.884527132578, 42.915431495596003 ], [ -78.883408153570002, 42.915459433176999 ], [ -78.882638222414997, 42.915476494068997 ], [ -78.882043147093995, 42.915490492940997 ], [ -78.880343168067995, 42.915487439723996 ], [ -78.878663149580007, 42.915476481478002 ], [ -78.877051108331003, 42.915461482060003 ], [ -78.873702206024007, 42.91543348271 ], [ -78.87312418866, 42.915426508701003 ], [ -78.869179141429996, 42.915395435665999 ], [ -78.866845212851004, 42.915370510536 ], [ -78.865498140431995, 42.915359438773997 ], [ -78.864418188919004, 42.9153534561 ], [ -78.864525138119006, 42.915222437712998 ], [ -78.864641125077995, 42.914975505664998 ], [ -78.864998170712994, 42.913943492874999 ], [ -78.865492168965005, 42.912512484174997 ], [ -78.865916195666003, 42.911257431396002 ], [ -78.862418134655996, 42.911216496868001 ], [ -78.859583174394004, 42.911180438770003 ], [ -78.856792143888001, 42.911149490722998 ], [ -78.855878177134997, 42.911142508722001 ], [ -78.854980187886994, 42.911132459478999 ], [ -78.853977165315996, 42.911121442553998 ], [ -78.853979150585005, 42.910609513246001 ], [ -78.853980210474006, 42.910149476487 ], [ -78.853980193260995, 42.909393434088003 ], [ -78.853979208560006, 42.908376496011002 ], [ -78.853979181130001, 42.908248463328 ], [ -78.853978093094, 42.907461483577002 ], [ -78.853977155810995, 42.906594455863001 ], [ -78.853973132820997, 42.905652440731998 ], [ -78.853980179787001, 42.903839480880997 ], [ -78.853975108355002, 42.902087433681999 ], [ -78.853968188791995, 42.900207505921998 ], [ -78.853969206471007, 42.899277475060998 ], [ -78.853967177984998, 42.898410483794002 ], [ -78.853966120844007, 42.897806458063997 ], [ -78.853967150184005, 42.897473464896997 ], [ -78.853969201827994, 42.897068497543998 ], [ -78.853971149171997, 42.896787515123997 ], [ -78.853972158684002, 42.896601463195999 ], [ -78.853971183341997, 42.896175439567998 ], [ -78.853966202335997, 42.895186455949997 ], [ -78.853966208391, 42.894057475968999 ], [ -78.853972198620994, 42.893022473738 ], [ -78.853972152880004, 42.891845505338999 ], [ -78.853971132287995, 42.891051498739003 ], [ -78.853968122655999, 42.889799449431003 ], [ -78.853956166326995, 42.887828481058001 ], [ -78.853939204278007, 42.885160430163999 ], [ -78.853940148704993, 42.884910454099 ], [ -78.853931180171003, 42.883356438652001 ], [ -78.853921126572999, 42.881863504587997 ], [ -78.853915173049998, 42.880646487912998 ], [ -78.853917199650994, 42.880433480369 ], [ -78.853953099660004, 42.880186467835003 ], [ -78.854097173902005, 42.879779502555998 ], [ -78.854349132218999, 42.879021444802 ], [ -78.854761182318995, 42.879040504952997 ], [ -78.855124094952998, 42.878972444109998 ], [ -78.855228111317004, 42.879091477665 ], [ -78.855314188365995, 42.879156462906998 ], [ -78.855450199434998, 42.879207429059001 ], [ -78.857518167123004, 42.879571467226 ], [ -78.859946103580995, 42.879992463435997 ], [ -78.862362196934001, 42.880413447778999 ], [ -78.864776169934999, 42.880827428478 ], [ -78.867090148214004, 42.88123744888 ], [ -78.867869146058993, 42.881367470237002 ], [ -78.869110167128994, 42.881578498233999 ], [ -78.869306971178005, 42.880980507994998 ], [ -78.869358156578002, 42.880777504922001 ], [ -78.869416201302997, 42.880384506954996 ], [ -78.869472184507998, 42.880140501051997 ], [ -78.869670157732003, 42.879524427031001 ], [ -78.869887188901004, 42.878833425210999 ], [ -78.870125122957006, 42.878120467197 ], [ -78.870709193994003, 42.876297511392004 ], [ -78.870828055068998, 42.875949644607999 ], [ -78.871136187233006, 42.874971477361001 ], [ -78.871447187806993, 42.874004477287997 ], [ -78.871786181454993, 42.873015459115997 ], [ -78.872859153994995, 42.873199435768001 ], [ -78.873430179962, 42.873300469188003 ], [ -78.874333209539998, 42.873456426196 ], [ -78.875202337648005, 42.873599089671998 ], [ -78.875385098763005, 42.873649467391999 ], [ -78.875932102760999, 42.873894462155 ], [ -78.876864163166005, 42.874330017455001 ], [ -78.877041132833, 42.874434445129999 ], [ -78.877391164230005, 42.874708442709 ], [ -78.877619139328999, 42.874860647498998 ], [ -78.878061372857005, 42.874560524791001 ], [ -78.879770080504997, 42.877061100066001 ], [ -78.882680279729001, 42.878315716354997 ], [ -78.882997212600998, 42.877921249193001 ], [ -78.886814769885007, 42.878216862708001 ], [ -78.887867800178995, 42.878898848589003 ], [ -78.889798025627996, 42.882939893077001 ], [ -78.890708526612002, 42.884369413023997 ], [ -78.891104054880998, 42.884372810142999 ], [ -78.890685159748998, 42.884923740959003 ], [ -78.889802419597004, 42.884581405829998 ], [ -78.889471765897994, 42.883266601575997 ], [ -78.888610297718998, 42.881557064138001 ], [ -78.888245387669997, 42.881043559082002 ], [ -78.887663969125995, 42.880505933607999 ], [ -78.886511276071005, 42.879782549478001 ], [ -78.885729843476994, 42.879633359678998 ], [ -78.885657321921997, 42.879489840448997 ], [ -78.885388378166994, 42.879520733897998 ], [ -78.885477960893994, 42.879662392523997 ], [ -78.884884142055, 42.879826133332998 ], [ -78.884170668596994, 42.880092266346999 ], [ -78.884256673634994, 42.880323553441002 ], [ -78.884644660529005, 42.880316017189003 ], [ -78.884933892196997, 42.880428097711999 ], [ -78.885118113062006, 42.880715719701001 ], [ -78.884005037353006, 42.881134346101 ], [ -78.884158589951994, 42.881349680303998 ], [ -78.884586077568002, 42.881215821074001 ], [ -78.885018177079999, 42.881263387159002 ], [ -78.885253409279997, 42.881490509102001 ], [ -78.885584242774996, 42.882289477101999 ], [ -78.885469099096994, 42.882491799143999 ], [ -78.884837983978002, 42.882760990243 ], [ -78.884998928433006, 42.882960183498 ], [ -78.885659586754997, 42.882723840061999 ], [ -78.886141065217998, 42.882947564825002 ], [ -78.886692877589994, 42.882485477102001 ], [ -78.886894368762995, 42.882487342132002 ], [ -78.887115733149002, 42.882642813118999 ], [ -78.887091247827001, 42.882785217719999 ], [ -78.886367756360002, 42.883390078989997 ], [ -78.886993593113004, 42.883794881241997 ], [ -78.887832902146002, 42.883088161156998 ], [ -78.888124249719993, 42.883057546221998 ], [ -78.888365581003001, 42.883383424195003 ], [ -78.887556177875993, 42.884101388083998 ], [ -78.887725617189005, 42.884223725383002 ], [ -78.888106219229002, 42.884226829558003 ], [ -78.888964173836001, 42.884991450116999 ], [ -78.890278388385994, 42.886133851601997 ], [ -78.889977696089005, 42.886257789772003 ], [ -78.889530742239003, 42.886704179220999 ], [ -78.889994119397002, 42.887125153082003 ], [ -78.890288373206005, 42.886924749274002 ], [ -78.890561702553995, 42.887113684824001 ], [ -78.890222349219002, 42.887343366621998 ], [ -78.890669283318005, 42.887738657928999 ], [ -78.892308991613007, 42.887966788027001 ], [ -78.895823663417005, 42.890852037809999 ], [ -78.900659035914003, 42.894240798689999 ], [ -78.901972526359003, 42.896664791973997 ] ] ] } },
{ "type": "Feature", "properties": { "DISTRICT": "District C", "objectid": "4", "TOTAL": 42476.303192255145, "WHITE": 8874.0192803630835, "BLACK": 18642.11602112684, "AMERICAN_INDIAN": 163.55884352324782, "ASIAN": 8484.9421770871013, "PACIFIC_ISLANDER": 0.0, "OTHER": 454.23356935592301, "TWO_OR_MORE": 1149.1511530719292, "HISPANIC": 4708.2821477270209, "WHITE_PCT": 0.209, "BLACK_PCT": 0.439, "AMERICAN_INDIAN_PCT": 0.004, "ASIAN_PCT": 0.2, "PACIFIC_ISLANDER_PCT": 0.0, "OTHER_PCT": 0.011, "TWO_OR_MORE_PCT": 0.027, "HISPANIC_PCT": 0.111 }, "geometry": { "type": "Polygon", "coordinates": [ [ [ -78.837627146564998, 42.878837513931998 ], [ -78.837941152035995, 42.878965450834997 ], [ -78.838194186069998, 42.879081477622002 ], [ -78.838381120842001, 42.879140478807997 ], [ -78.838554145879002, 42.879180497973003 ], [ -78.839209164937998, 42.879295449261001 ], [ -78.839218575646001, 42.879137593811997 ], [ -78.839277105879006, 42.878869450181 ], [ -78.839378110431994, 42.878664463949001 ], [ -78.839459169308, 42.878540460463 ], [ -78.839662137052997, 42.878315482308999 ], [ -78.839848095866998, 42.878175440207002 ], [ -78.840993608285004, 42.877340285099997 ], [ -78.841840090122005, 42.876729496966 ], [ -78.841923145661994, 42.876791442870001 ], [ -78.842101168935997, 42.876882430491001 ], [ -78.842225160615996, 42.876921481871001 ], [ -78.842656139105003, 42.876975514701002 ], [ -78.843111662888006, 42.877036691108998 ], [ -78.844082096682996, 42.877215515636003 ], [ -78.845690144241004, 42.877493490634002 ], [ -78.847319148135995, 42.877777491925002 ], [ -78.848965127781, 42.878066479989997 ], [ -78.852037149376002, 42.878603445259998 ], [ -78.854349132218999, 42.879021444802 ], [ -78.854097173902005, 42.879779502555998 ], [ -78.853953099660004, 42.880186467835003 ], [ -78.853917199650994, 42.880433480369 ], [ -78.853915173049998, 42.880646487912998 ], [ -78.853921126572999, 42.881863504587997 ], [ -78.853931180171003, 42.883356438652001 ], [ -78.853940148704993, 42.884910454099 ], [ -78.853939204278007, 42.885160430163999 ], [ -78.853956166326995, 42.887828481058001 ], [ -78.853968122655999, 42.889799449431003 ], [ -78.853971132287995, 42.891051498739003 ], [ -78.853972152880004, 42.891845505338999 ], [ -78.853972198620994, 42.893022473738 ], [ -78.853966208391, 42.894057475968999 ], [ -78.853966202335997, 42.895186455949997 ], [ -78.853971183341997, 42.896175439567998 ], [ -78.853972158684002, 42.896601463195999 ], [ -78.853971149171997, 42.896787515123997 ], [ -78.853969201827994, 42.897068497543998 ], [ -78.853967150184005, 42.897473464896997 ], [ -78.853966120844007, 42.897806458063997 ], [ -78.853967177984998, 42.898410483794002 ], [ -78.853969206471007, 42.899277475060998 ], [ -78.853968188791995, 42.900207505921998 ], [ -78.853975108355002, 42.902087433681999 ], [ -78.853980179787001, 42.903839480880997 ], [ -78.853973132820997, 42.905652440731998 ], [ -78.853977155810995, 42.906594455863001 ], [ -78.853978093094, 42.907461483577002 ], [ -78.853979181130001, 42.908248463328 ], [ -78.853979208560006, 42.908376496011002 ], [ -78.853980193260995, 42.909393434088003 ], [ -78.853980210474006, 42.910149476487 ], [ -78.853979150585005, 42.910609513246001 ], [ -78.853977165315996, 42.911121442553998 ], [ -78.853987122641996, 42.912368483556001 ], [ -78.853988172483994, 42.913859465755998 ], [ -78.853992156952003, 42.914971472285004 ], [ -78.852966188080998, 42.914764488217997 ], [ -78.852250183368, 42.914760438880002 ], [ -78.849110125435004, 42.914733502384003 ], [ -78.848090136427004, 42.914720483815003 ], [ -78.843685159314006, 42.914679519716998 ], [ -78.843342161486007, 42.914677457262002 ], [ -78.843166191291999, 42.914674459369003 ], [ -78.839122091098005, 42.914631449493001 ], [ -78.837799115506002, 42.914621491406997 ], [ -78.833584124126006, 42.914560522625997 ], [ -78.832417145850002, 42.914551482751001 ], [ -78.829080108021003, 42.914508449086 ], [ -78.82778316113, 42.914493450993 ], [ -78.826393117625997, 42.914478493668 ], [ -78.825356171550993, 42.914468451203 ], [ -78.824276112269004, 42.914458490092002 ], [ -78.823740195037004, 42.914472456574998 ], [ -78.823277168694005, 42.914490464615 ], [ -78.822629115745997, 42.914515469790999 ], [ -78.822311180688999, 42.914526461225002 ], [ -78.821529178880994, 42.914558458942999 ], [ -78.821345196088998, 42.914566500658999 ], [ -78.820356116124003, 42.914607483581001 ], [ -78.819314115066007, 42.914646445241999 ], [ -78.817729142904, 42.914678502085998 ], [ -78.816730112006994, 42.914679448553002 ], [ -78.815731086379003, 42.914682458592999 ], [ -78.814716140314999, 42.914687520285 ], [ -78.813700087894006, 42.914692521192997 ], [ -78.813707198106997, 42.912643478436998 ], [ -78.812617097883006, 42.913085460540003 ], [ -78.811637082757997, 42.913481443845001 ], [ -78.810618108314003, 42.913887451606001 ], [ -78.810341136947997, 42.914000497842999 ], [ -78.809615106017006, 42.914292468073 ], [ -78.80860315004, 42.914695522769001 ], [ -78.808269090061003, 42.914830453481002 ], [ -78.807956101564002, 42.914955498886997 ], [ -78.807134086613999, 42.915284504665003 ], [ -78.805885154395, 42.915784474673998 ], [ -78.804939168030003, 42.916163511049 ], [ -78.804045097379003, 42.916520464285 ], [ -78.803607093945999, 42.916696476806997 ], [ -78.802657160051993, 42.917077516555999 ], [ -78.802209161877997, 42.917258448151003 ], [ -78.801650193030994, 42.917483495090003 ], [ -78.801185105889999, 42.917669492872001 ], [ -78.800600098456997, 42.917901523095999 ], [ -78.800154111151997, 42.918079499097999 ], [ -78.799569096761005, 42.918313505431001 ], [ -78.799149128547995, 42.918466481525002 ], [ -78.799196151342997, 42.913645471282003 ], [ -78.799213134381006, 42.90978751131 ], [ -78.799258103384005, 42.906826475647001 ], [ -78.799257005786004, 42.898766388993003 ], [ -78.799358070137998, 42.895665586843002 ], [ -78.799556506993, 42.884586515846003 ], [ -78.799655074067005, 42.884620784786001 ], [ -78.800125495494001, 42.884808261240003 ], [ -78.800379504687996, 42.884905392051998 ], [ -78.800850164321005, 42.885084514597999 ], [ -78.800924150016996, 42.884981482127003 ], [ -78.800986154906994, 42.884946466224001 ], [ -78.801239465633998, 42.884871035415003 ], [ -78.801458078796003, 42.884805936299998 ], [ -78.801828101571999, 42.884706520381997 ], [ -78.802090163935006, 42.884669443892001 ], [ -78.802345077455996, 42.884657453488998 ], [ -78.802517172291004, 42.884667224651999 ], [ -78.802635863632005, 42.884670633361999 ], [ -78.803453023040007, 42.884688907898003 ], [ -78.803742210194002, 42.884695374171997 ], [ -78.804413217234995, 42.884696599236001 ], [ -78.805025473651995, 42.884700099181003 ], [ -78.806229149147001, 42.884712264690997 ], [ -78.807210647871003, 42.884723921385998 ], [ -78.807590161312007, 42.884728504355998 ], [ -78.808542656108003, 42.884737406747 ], [ -78.808917163698993, 42.884741206569998 ], [ -78.809543184329002, 42.884747779907997 ], [ -78.813828093723998, 42.884779520267998 ], [ -78.814165109287998, 42.884796458636998 ], [ -78.815273559486997, 42.884808087252999 ], [ -78.816039135623996, 42.884812407684002 ], [ -78.816695361640996, 42.884812486232001 ], [ -78.821801614099002, 42.884852265159999 ], [ -78.823022887658993, 42.884855413270003 ], [ -78.824051656978, 42.884870857811002 ], [ -78.824156097124998, 42.884872444919999 ], [ -78.824174133933994, 42.884831504452997 ], [ -78.824323540796001, 42.884587614954 ], [ -78.824537797267993, 42.884285827638998 ], [ -78.825653134088, 42.882721505280003 ], [ -78.826878138412994, 42.88100544161 ], [ -78.827621978143, 42.879959355425001 ], [ -78.828116521050006, 42.879264219496001 ], [ -78.828273183617995, 42.879045142674997 ], [ -78.828387707741996, 42.878884990857998 ], [ -78.828456314318998, 42.878789049378 ], [ -78.828661113560003, 42.878520485359999 ], [ -78.828730171342002, 42.878447492150997 ], [ -78.828797160424998, 42.878396448091003 ], [ -78.828892041247997, 42.878351790676 ], [ -78.828899107918005, 42.878348465396002 ], [ -78.828926891145997, 42.878339190209999 ], [ -78.829225056715998, 42.878239657034001 ], [ -78.829465129697994, 42.878159514574001 ], [ -78.831145325769, 42.877604336466 ], [ -78.832055810840998, 42.877314246341001 ], [ -78.832932180398004, 42.877035441933998 ], [ -78.833252169863997, 42.877159499633997 ], [ -78.834113186070994, 42.877491496487004 ], [ -78.834959151204998, 42.877817510027 ], [ -78.835850124331998, 42.878158483280998 ], [ -78.836857082768006, 42.878545438198998 ], [ -78.837627146564998, 42.878837513931998 ] ] ] } },
{ "type": "Feature", "properties": { "DISTRICT": "District D", "objectid": "5", "TOTAL": 78972.798313477571, "WHITE": 46548.281766247717, "BLACK": 12780.636825584301, "AMERICAN_INDIAN": 372.08809444444535, "ASIAN": 4980.4598164550944, "PACIFIC_ISLANDER": 3.9999999999999978, "OTHER": 97.343716895162117, "TWO_OR_MORE": 3240.3752346416022, "HISPANIC": 10949.612859209241, "WHITE_PCT": 0.589, "BLACK_PCT": 0.162, "AMERICAN_INDIAN_PCT": 0.005, "ASIAN_PCT": 0.063, "PACIFIC_ISLANDER_PCT": 0.0, "OTHER_PCT": 0.001, "TWO_OR_MORE_PCT": 0.041, "HISPANIC_PCT": 0.139 }, "geometry": { "type": "MultiPolygon", "coordinates": [ [ [ [ -78.901474134696002, 42.930150283198998 ], [ -78.901303801772997, 42.929931231742998 ], [ -78.900680569420004, 42.924270657064 ], [ -78.901034845561, 42.923098730657003 ], [ -78.900892404011003, 42.922625122311999 ], [ -78.901610785293997, 42.920566600394999 ], [ -78.901554286473001, 42.920379488058998 ], [ -78.902114432624003, 42.919862425843 ], [ -78.902739012308999, 42.918088489749998 ], [ -78.902679664028994, 42.916083916329001 ], [ -78.902553167473997, 42.916077410370001 ], [ -78.902576262213998, 42.915197400406001 ], [ -78.901723381734996, 42.915191026386999 ], [ -78.902572179079002, 42.915185584733003 ], [ -78.902648073383006, 42.912767353787999 ], [ -78.902917211182995, 42.912747738710998 ], [ -78.903375576282002, 42.915030042599 ], [ -78.903196026882995, 42.915050437418998 ], [ -78.903492822559997, 42.916134808343003 ], [ -78.903675633153, 42.916383302489997 ], [ -78.903709818183003, 42.916586596549003 ], [ -78.903761854758997, 42.916856993240998 ], [ -78.903764806826999, 42.917104781505003 ], [ -78.904540597172996, 42.920387611095997 ], [ -78.904626688901999, 42.921641302955003 ], [ -78.904739642305003, 42.922419776719998 ], [ -78.904811960876003, 42.922979953887001 ], [ -78.906024963866003, 42.926889483299 ], [ -78.906104159652998, 42.927576597235003 ], [ -78.906880221557003, 42.929874366985999 ], [ -78.907592369615998, 42.931898775870998 ], [ -78.908152833027003, 42.932853079231002 ], [ -78.908462544182001, 42.933874974486002 ], [ -78.908066549151997, 42.933754339963997 ], [ -78.907897227977003, 42.933954778537 ], [ -78.907813956046994, 42.934008862742999 ], [ -78.907573285504, 42.934133360194998 ], [ -78.907429352514995, 42.934280220996001 ], [ -78.907397663007004, 42.934379090356003 ], [ -78.907423757586002, 42.934637282639002 ], [ -78.907363899380996, 42.934705363372998 ], [ -78.907163430270998, 42.934574567737002 ], [ -78.906984091612003, 42.934556895984002 ], [ -78.906130070386993, 42.933909958241998 ], [ -78.905602799015, 42.933557227352999 ], [ -78.905433396888, 42.933385526357 ], [ -78.905152081910998, 42.933235061666998 ], [ -78.904997000826, 42.933124029338998 ], [ -78.904858212437006, 42.932914170467001 ], [ -78.904589396020995, 42.932922814655001 ], [ -78.904406474211001, 42.932663346702 ], [ -78.902611918264, 42.931342051255001 ], [ -78.902273853170001, 42.930954738056997 ], [ -78.901965073593999, 42.930633879929999 ], [ -78.901474134696002, 42.930150283198998 ] ] ], [ [ [ -78.901367795835, 42.931059476468 ], [ -78.901366143258997, 42.931058298175998 ], [ -78.901363984173003, 42.931056774708999 ], [ -78.901965073593999, 42.930633879929999 ], [ -78.901368160904994, 42.931059475453999 ], [ -78.901367795835, 42.931059476468 ] ] ], [ [ [ -78.901490660546003, 42.916630170585996 ], [ -78.901218980764, 42.917611171965 ], [ -78.901120407636995, 42.917771619494999 ], [ -78.900989271024997, 42.918133830255002 ], [ -78.900873342915006, 42.918550191728002 ], [ -78.899665951792997, 42.921990569544 ], [ -78.899526811453001, 42.922433744354002 ], [ -78.899301924520003, 42.923267129411997 ], [ -78.899135977952, 42.924128474984002 ], [ -78.899114973194997, 42.924767510885999 ], [ -78.899139946071003, 42.926001494166997 ], [ -78.899057207580995, 42.926067574984003 ], [ -78.898987522130994, 42.926314029322 ], [ -78.898983453742005, 42.927374441665002 ], [ -78.899023691311996, 42.927912915356998 ], [ -78.899141189880993, 42.928907460014003 ], [ -78.899362138609007, 42.929629491005997 ], [ -78.899454109302994, 42.929828485336998 ], [ -78.899655215954994, 42.930137473353 ], [ -78.899820176282006, 42.930411499351997 ], [ -78.901103061870003, 42.931467323123996 ], [ -78.901238059994, 42.931487869305002 ], [ -78.901320828066005, 42.931426588637002 ], [ -78.901358246309002, 42.931350685680997 ], [ -78.901085084084002, 42.931057508686997 ], [ -78.901228349299998, 42.930961075081001 ], [ -78.901363984173003, 42.931056774708999 ], [ -78.901360113441996, 42.931059497810999 ], [ -78.901367795835, 42.931059476468 ], [ -78.903447097024994, 42.932541530167001 ], [ -78.902950845492995, 42.932887956546999 ], [ -78.904003659877006, 42.933654666147 ], [ -78.903890456438006, 42.933787716258003 ], [ -78.904096327445004, 42.934151731025999 ], [ -78.904623027769006, 42.934543997043001 ], [ -78.905200305327, 42.934428506331997 ], [ -78.905243397655994, 42.934546370885002 ], [ -78.904524109006999, 42.934731200583002 ], [ -78.904567038319001, 42.934907715719 ], [ -78.905443950214007, 42.934693974856998 ], [ -78.906024046859002, 42.935028807077998 ], [ -78.906675492591006, 42.935617242178999 ], [ -78.907821106423995, 42.936970837733 ], [ -78.907160693454998, 42.937170265233 ], [ -78.907226735776007, 42.937302127202003 ], [ -78.907967763591003, 42.937252696674001 ], [ -78.908741491621001, 42.938360732924998 ], [ -78.908917225435999, 42.938755691810996 ], [ -78.908913775936995, 42.939075361261999 ], [ -78.909128714377005, 42.939290828963003 ], [ -78.909726633993998, 42.940778696666001 ], [ -78.909764663649, 42.942233517696998 ], [ -78.909309331825995, 42.942202917964003 ], [ -78.909187238303005, 42.943218148900002 ], [ -78.908390607632995, 42.943626847433997 ], [ -78.908561616270006, 42.943742289351 ], [ -78.908881941819004, 42.943842902151999 ], [ -78.909174078662005, 42.943821148215001 ], [ -78.909443146723007, 42.943763105047999 ], [ -78.909690206055998, 42.943780921039 ], [ -78.909719692232002, 42.944000057757002 ], [ -78.909680357065994, 42.944744384989001 ], [ -78.909568164733997, 42.944805412442001 ], [ -78.908927140152997, 42.944854450980003 ], [ -78.908833662532999, 42.944958415949003 ], [ -78.909640671190004, 42.945009280447998 ], [ -78.909619002208998, 42.945679872051002 ], [ -78.909304611517996, 42.945732556989 ], [ -78.909116246048995, 42.945868571649001 ], [ -78.909674189645997, 42.952042942708999 ], [ -78.91001822618, 42.952962468366998 ], [ -78.910403608154994, 42.953606637740997 ], [ -78.910840726781004, 42.954472829906003 ], [ -78.911880229377999, 42.955785502662003 ], [ -78.912520368876997, 42.956326969778999 ], [ -78.912028153582, 42.956654513594003 ], [ -78.908677165699999, 42.959127489609003 ], [ -78.907819221045003, 42.959758451934 ], [ -78.906997195317004, 42.960366480471997 ], [ -78.906862133062006, 42.960467526526003 ], [ -78.906080226068994, 42.961043474843997 ], [ -78.905309167051996, 42.961624449139997 ], [ -78.904505196903997, 42.962212485363999 ], [ -78.903730213482007, 42.962807448294001 ], [ -78.902960187652994, 42.963372525809 ], [ -78.902177225, 42.963944521637998 ], [ -78.901342176514007, 42.964565469756003 ], [ -78.899579176418996, 42.965841489037999 ], [ -78.898762156103004, 42.966459462464002 ], [ -78.896760164452004, 42.964988474690003 ], [ -78.894771438071004, 42.963503486440999 ], [ -78.893860670620001, 42.962765963766003 ], [ -78.893263566236001, 42.962166597176001 ], [ -78.892476222457006, 42.961277469393004 ], [ -78.890646156239995, 42.958574487032003 ], [ -78.889302116750997, 42.958593490096 ], [ -78.880368114697006, 42.958631459274002 ], [ -78.879357172330998, 42.958635524755998 ], [ -78.878535180778997, 42.958634520208001 ], [ -78.875161089554993, 42.958666522495001 ], [ -78.874260812743998, 42.958666015384999 ], [ -78.873596192568996, 42.958674524425 ], [ -78.87264917636, 42.958683476342003 ], [ -78.871702218265, 42.958689447780998 ], [ -78.870748150918999, 42.958693491082997 ], [ -78.869498108862004, 42.958702504930997 ], [ -78.865813204393007, 42.958696465738001 ], [ -78.861570095656006, 42.958679456540999 ], [ -78.858661220534998, 42.958674516449001 ], [ -78.854296126660003, 42.958643526376001 ], [ -78.853140202692998, 42.958634510823998 ], [ -78.852034163042006, 42.958619480932001 ], [ -78.850906181488, 42.958604459237002 ], [ -78.849779121791002, 42.958586513897998 ], [ -78.848615101801997, 42.958571512096 ], [ -78.847455183956995, 42.958551499122002 ], [ -78.846108200331003, 42.958529486010001 ], [ -78.844987152336998, 42.958515522535002 ], [ -78.844690121316006, 42.958509487333998 ], [ -78.844621186438999, 42.958528463622002 ], [ -78.843802137029002, 42.958527469400998 ], [ -78.842606180657, 42.958507447879001 ], [ -78.840647131492005, 42.958479474298002 ], [ -78.839364141565994, 42.958459462377 ], [ -78.838272144296994, 42.958441486444997 ], [ -78.836799724857997, 42.958410889436998 ], [ -78.830232492215998, 42.947306867016998 ], [ -78.831683101430997, 42.945980476133002 ], [ -78.832706121672004, 42.945059490835 ], [ -78.833775088712997, 42.944089506049004 ], [ -78.834016207309006, 42.943869471119001 ], [ -78.834803178436999, 42.943150505268001 ], [ -78.835542131501001, 42.942481495363999 ], [ -78.836197184366, 42.941882464057002 ], [ -78.837979114888995, 42.940269504028002 ], [ -78.839077109997007, 42.939258518471 ], [ -78.840323089099996, 42.938111456667997 ], [ -78.841576128265004, 42.936956490987001 ], [ -78.842122161144999, 42.936448516284997 ], [ -78.842812094657006, 42.935809469261997 ], [ -78.843914102000994, 42.934800463767999 ], [ -78.844799205776994, 42.933988451962001 ], [ -78.845831119275005, 42.933035447942999 ], [ -78.846412207935003, 42.932487467323 ], [ -78.846660151058998, 42.932252500101001 ], [ -78.847485178106993, 42.931472471195001 ], [ -78.848157122391001, 42.930837509126 ], [ -78.849554204143004, 42.929511488259003 ], [ -78.850970206168, 42.928173468060997 ], [ -78.851082136743997, 42.928068495909002 ], [ -78.851190145437002, 42.927965455681999 ], [ -78.851517180580998, 42.927657494012998 ], [ -78.852291118099998, 42.926926512317003 ], [ -78.852905136475997, 42.926346505460003 ], [ -78.853999129938998, 42.925312463508 ], [ -78.856918136179999, 42.922551517473998 ], [ -78.857284147637003, 42.922205489164 ], [ -78.858858107822996, 42.920720502992999 ], [ -78.859166094303006, 42.920426487712 ], [ -78.859454197798001, 42.920153491907001 ], [ -78.860105105450003, 42.919542489266 ], [ -78.861299190918004, 42.918406496237999 ], [ -78.862280213917003, 42.917470460300997 ], [ -78.864418188919004, 42.9153534561 ], [ -78.865498140431995, 42.915359438773997 ], [ -78.866845212851004, 42.915370510536 ], [ -78.869179141429996, 42.915395435665999 ], [ -78.87312418866, 42.915426508701003 ], [ -78.873702206024007, 42.91543348271 ], [ -78.877051108331003, 42.915461482060003 ], [ -78.878663149580007, 42.915476481478002 ], [ -78.880343168067995, 42.915487439723996 ], [ -78.882110213356, 42.915489476223001 ], [ -78.882638222414997, 42.915476494068997 ], [ -78.883408153570002, 42.915459433176999 ], [ -78.884527132578, 42.915431495596003 ], [ -78.885650210872996, 42.915402507303 ], [ -78.886093194365003, 42.915385466685002 ], [ -78.886905133314002, 42.915362452163002 ], [ -78.888319139193996, 42.915333448142 ], [ -78.890409117603994, 42.915285473509002 ], [ -78.893237157634005, 42.915212504174001 ], [ -78.894609186831005, 42.915176479281001 ], [ -78.895997195988997, 42.915137461392 ], [ -78.897505146599002, 42.915106492108002 ], [ -78.898437191618001, 42.915150518532002 ], [ -78.899449182894003, 42.915203515961998 ], [ -78.900275140432996, 42.915212520079002 ], [ -78.901396143886004, 42.915195512593002 ], [ -78.901723381734996, 42.915191026386999 ], [ -78.901687385561004, 42.915593812733 ], [ -78.901490660546003, 42.916630170585996 ] ] ] ] } },
{ "type": "Feature", "properties": { "DISTRICT": "District E", "objectid": "2", "TOTAL": 62284.171183923107, "WHITE": 9810.9279412702963, "BLACK": 40438.134853657168, "AMERICAN_INDIAN": 60.589236545018757, "ASIAN": 4990.258963776474, "PACIFIC_ISLANDER": 0.011431663310118398, "OTHER": 172.09237660416051, "TWO_OR_MORE": 2817.1721988024947, "HISPANIC": 3994.9841816041844, "WHITE_PCT": 0.158, "BLACK_PCT": 0.649, "AMERICAN_INDIAN_PCT": 0.001, "ASIAN_PCT": 0.08, "PACIFIC_ISLANDER_PCT": 0.0, "OTHER_PCT": 0.003, "TWO_OR_MORE_PCT": 0.045, "HISPANIC_PCT": 0.064 }, "geometry": { "type": "Polygon", "coordinates": [ [ [ -78.831683101430997, 42.945980476133002 ], [ -78.830232492215998, 42.947306867016998 ], [ -78.836799724857997, 42.958410889436998 ], [ -78.832187196972001, 42.958323512611997 ], [ -78.826474186473007, 42.958205457521998 ], [ -78.823834183138999, 42.958159472371001 ], [ -78.822365095132, 42.958097505662998 ], [ -78.820899098816994, 42.958073501701001 ], [ -78.820195089090006, 42.958059487793001 ], [ -78.818927183385995, 42.958031448562998 ], [ -78.818928139522001, 42.957409530145 ], [ -78.818755131976005, 42.957541451993997 ], [ -78.816006104091002, 42.958599453162002 ], [ -78.814583111027005, 42.959195458928001 ], [ -78.814507089469998, 42.959270475845003 ], [ -78.811130096357005, 42.960605471484001 ], [ -78.809014900498994, 42.961398089429998 ], [ -78.808950689200003, 42.958981828067003 ], [ -78.807864349010998, 42.958987137336997 ], [ -78.807837651702002, 42.956472026801997 ], [ -78.803973084500001, 42.956445585937999 ], [ -78.803990043626001, 42.954657594849003 ], [ -78.808938380745005, 42.954717918215998 ], [ -78.808967801799, 42.952290583189999 ], [ -78.810614875590005, 42.952283281903 ], [ -78.810984396665006, 42.951701194087001 ], [ -78.811032169738994, 42.949688478569001 ], [ -78.811195670947995, 42.949434969294998 ], [ -78.803443192797005, 42.949418497959002 ], [ -78.799033430791994, 42.949343016787999 ], [ -78.799044090006007, 42.947037443188997 ], [ -78.799051155406005, 42.945060527182001 ], [ -78.799052093029005, 42.943903515106001 ], [ -78.799028108521, 42.938056468751 ], [ -78.799026186744996, 42.937346496482 ], [ -78.799013094111999, 42.936574499666001 ], [ -78.799020170757004, 42.935835507134001 ], [ -78.799014196532994, 42.935097487922 ], [ -78.799020187473005, 42.934418495685001 ], [ -78.799025194953003, 42.933506519599 ], [ -78.799022134241994, 42.933098481156001 ], [ -78.799020087648998, 42.932792511700001 ], [ -78.799014137485997, 42.930207461009999 ], [ -78.798996103902994, 42.929914447717998 ], [ -78.799154182031998, 42.922793523288 ], [ -78.799149092004001, 42.919015442411997 ], [ -78.799149128547995, 42.918466481525002 ], [ -78.799569096761005, 42.918313505431001 ], [ -78.800154111151997, 42.918079499097999 ], [ -78.800600098456997, 42.917901523095999 ], [ -78.801185105889999, 42.917669492872001 ], [ -78.801650193030994, 42.917483495090003 ], [ -78.802209161877997, 42.917258448151003 ], [ -78.802657160051993, 42.917077516555999 ], [ -78.803607093945999, 42.916696476806997 ], [ -78.804045097379003, 42.916520464285 ], [ -78.804939168030003, 42.916163511049 ], [ -78.805885154395, 42.915784474673998 ], [ -78.807134086613999, 42.915284504665003 ], [ -78.807956101564002, 42.914955498886997 ], [ -78.808269090061003, 42.914830453481002 ], [ -78.80860315004, 42.914695522769001 ], [ -78.809615106017006, 42.914292468073 ], [ -78.810341136947997, 42.914000497842999 ], [ -78.810618108314003, 42.913887451606001 ], [ -78.811637082757997, 42.913481443845001 ], [ -78.812617097883006, 42.913085460540003 ], [ -78.813707198106997, 42.912643478436998 ], [ -78.813700085400995, 42.914692509494998 ], [ -78.814716140314999, 42.914687520285 ], [ -78.815731086379003, 42.914682458592999 ], [ -78.816730112006994, 42.914679448553002 ], [ -78.817729142904, 42.914678502085998 ], [ -78.819314115066007, 42.914646445241999 ], [ -78.820432125438998, 42.914604493196997 ], [ -78.821345196088998, 42.914566500658999 ], [ -78.821529178880994, 42.914558458942999 ], [ -78.822311180688999, 42.914526461225002 ], [ -78.822629115745997, 42.914515469790999 ], [ -78.823277168694005, 42.914490464615 ], [ -78.823740195037004, 42.914472456574998 ], [ -78.824408162968993, 42.914458483959997 ], [ -78.825356171550993, 42.914468451203 ], [ -78.826393117625997, 42.914478493668 ], [ -78.82778316113, 42.914493450993 ], [ -78.829080108021003, 42.914508449086 ], [ -78.832417145850002, 42.914551482751001 ], [ -78.833584124126006, 42.914560522625997 ], [ -78.837799115506002, 42.914621491406997 ], [ -78.839122091098005, 42.914631449493001 ], [ -78.843166191291999, 42.914674459369003 ], [ -78.843420190893994, 42.914677444753998 ], [ -78.843685159314006, 42.914679519716998 ], [ -78.848090136427004, 42.914720483815003 ], [ -78.849110125435004, 42.914733502384003 ], [ -78.852250183368, 42.914760438880002 ], [ -78.852966188080998, 42.914764488217997 ], [ -78.853992156952003, 42.914971472285004 ], [ -78.853988172483994, 42.913859465755998 ], [ -78.853987122641996, 42.912368483556001 ], [ -78.853977165315996, 42.911121442553998 ], [ -78.854980187886994, 42.911132459478999 ], [ -78.855878177134997, 42.911142508722001 ], [ -78.856792143888001, 42.911149490722998 ], [ -78.859583174394004, 42.911180438770003 ], [ -78.862418134655996, 42.911216496868001 ], [ -78.865916195666003, 42.911257431396002 ], [ -78.865492168965005, 42.912512484174997 ], [ -78.864998170712994, 42.913943492874999 ], [ -78.864641125077995, 42.914975505664998 ], [ -78.864525138119006, 42.915222437712998 ], [ -78.864418188919004, 42.9153534561 ], [ -78.862280213917003, 42.917470460300997 ], [ -78.861299190918004, 42.918406496237999 ], [ -78.860105105450003, 42.919542489266 ], [ -78.859454197798001, 42.920153491907001 ], [ -78.859166094303006, 42.920426487712 ], [ -78.858858107822996, 42.920720502992999 ], [ -78.857284147637003, 42.922205489164 ], [ -78.856918136179999, 42.922551517473998 ], [ -78.853999129938998, 42.925312463508 ], [ -78.852905136475997, 42.926346505460003 ], [ -78.852291118099998, 42.926926512317003 ], [ -78.851517180580998, 42.927657494012998 ], [ -78.851190145437002, 42.927965455681999 ], [ -78.851082136743997, 42.928068495909002 ], [ -78.850970206168, 42.928173468060997 ], [ -78.849554204143004, 42.929511488259003 ], [ -78.848157122391001, 42.930837509126 ], [ -78.847485178106993, 42.931472471195001 ], [ -78.846660151058998, 42.932252500101001 ], [ -78.846412207935003, 42.932487467323 ], [ -78.845831119275005, 42.933035447942999 ], [ -78.844799205776994, 42.933988451962001 ], [ -78.843914102000994, 42.934800463767999 ], [ -78.842870123940997, 42.935755476963998 ], [ -78.842122161144999, 42.936448516284997 ], [ -78.841576128265004, 42.936956490987001 ], [ -78.840323089099996, 42.938111456667997 ], [ -78.839308150049007, 42.939046464333003 ], [ -78.839077109997007, 42.939258518471 ], [ -78.837979114888995, 42.940269504028002 ], [ -78.836197184366, 42.941882464057002 ], [ -78.835542131501001, 42.942481495363999 ], [ -78.834803178436999, 42.943150505268001 ], [ -78.834016207309006, 42.943869471119001 ], [ -78.833775088712997, 42.944089506049004 ], [ -78.832706121672004, 42.945059490835 ], [ -78.831683101430997, 42.945980476133002 ] ] ] } }
]
}
